[
    {
        "Altitude(m)": 605470.7989717233,
        "Argument of Periapsis(deg)": 0.0,
        "Eccentricity": 0.0,
        "Inclination(deg)": 60.0,
        "Latitude(deg)": 27.988235283446656,
        "Longitude(deg)": 102.26294659015815,
        "Mean Anomaly(deg)": 147.2727,
        "RAAN(deg)": 40.0,
        "Satellite Name": "Test1 185",
        "Satellite Number": 185,
        "Semi-Major Axis(m)": 6980739.136638005,
        "Time(s)": 0
    },
    {
        "Altitude(m)": 605395.8367461731,
        "Argument of Periapsis(deg)": 0.00010418945913296404,
        "Eccentricity": 0.0,
        "Inclination(deg)": 60.0,
        "Latitude(deg)": 27.47392598743001,
        "Longitude(deg)": 102.61613447081507,
        "Mean Anomaly(deg)": 147.8928061454618,
        "RAAN(deg)": 39.99957995086026,
        "Satellite Name": "Test1 185",
        "Satellite Number": 185,
        "Semi-Major Axis(m)": 6980739.136638005,
        "Time(s)": 10
    }
]